{
  "norad_id": 59579,
  "name": "STARLINK-31686",
  "history": [
    {
      "epoch": "2026-03-28T21:30:27.489600Z",
      "apogee_km": 483.77964006712136,
      "perigee_km": 482.2493288400292,
      "latitude_deg": 1.2838343705581469e-05,
      "longitude_deg": 111.29325054227655,
      "height_km": 482.7950451816804,
      "semi_major_axis_km": 6861.151484453575,
      "eccentricity": 0.00011152,
      "inclination_deg": 43.0002,
      "raan_deg": 260.2178,
      "arg_perigee_deg": 269.6944,
      "mean_anomaly_deg": 90.378,
      "mean_motion_rev_day": 15.27591559
    },
    {
      "epoch": "2026-03-29T03:47:05.617824Z",
      "apogee_km": 483.4907054285077,
      "perigee_km": 482.57130891554607,
      "latitude_deg": 2.9838745826665758e-05,
      "longitude_deg": 15.39960329405502,
      "height_km": 482.54381156839787,
      "semi_major_axis_km": 6861.168007172027,
      "eccentricity": 6.7e-05,
      "inclination_deg": 42.999,
      "raan_deg": 258.7408,
      "arg_perigee_deg": 304.9077,
      "mean_anomaly_deg": 55.1712,
      "mean_motion_rev_day": 15.27586041
    }
  ]
}